ALSAT 1                 
1 27559U 02054A   13127.64856946  .00000625  00000-0  11085-3 0  7901
2 27559  97.7683 328.4879 0024390 134.3775 265.9552 14.70278586558357
NIGERIASAT 1            
1 27941U 03042C   13128.52681885  .00001095  00000-0  15175-3 0  8334
2 27941  97.7931 333.8376 0053444  71.6080 289.0967 14.78990120514435
UK-DMC                  
1 27942U 03042D   13128.18236257  .00000654  00000-0  97729-4 0  8804
2 27942  97.7785 335.3183 0063638 272.2791 204.5162 14.76722849514551
BILSAT 1                
1 27943U 03042E   13128.57745102  .00000348  00000-0  75841-4 0  6698
2 27943  97.8003 315.9626 0010682 325.8555  34.1970 14.63400056513367
BEIJING 1               
1 28890U 05043A   13128.54965616  .00000287  00000-0  68154-4 0  5492
2 28890  97.8596 343.6981 0014954 198.3164 161.7532 14.60472024401338
HJ-1A                   
1 33320U 08041A   13128.48586056  .00001195  00000-0  18499-3 0  1601
2 33320  97.8222 192.8946 0027320 174.2462 185.9072 14.74753494251426

